STARLINK-1008           
1 44714U 19074B   26027.58337963  .01365992  00000+0  45569-1 0  9996
2 44714  53.1403   9.9309 0001486  78.7972 305.5937 15.27920130  5835